{"type":"FeatureCollection","metadata":{"schema_version":1,"id":"usgs-wbd-boise-river-huc8-display-v1","truth_state":"observed","source_receipt":"receipts/usgs-wbd-boise-huc8-20260914.json","source_receipt_sha256":"1895c4ff9f45426313021ebc88d925e642dad7625c027f61372a5752ee086c9c","feature_count":4,"source_vertex_count":121884,"display_vertex_count":1316,"simplification_tolerance_degrees":0.0015,"analysis_geometry":"original-source-only","limitations":["HUC8 membership is watershed evidence but is not a directed dam-to-outlet flow path.","The browser derivative is simplified only for display; spatial classification uses this original geometry."]},"features":[{"type":"Feature","id":"17050111","properties":{"huc8":"17050111","name":"North and Middle Forks Boise","area_sq_km":1967.91,"truth_state":"observed","display_geometry":"simplified-from-receipted-wbd"},"geometry":{"type":"Polygon","coordinates":[[[-115.73961802005039,43.746131656245105],[-115.7256341688047,43.74685242465743],[-115.71234726559071,43.7427836807856],[-115.6968712533693,43.74240470775574],[-115.68309160535735,43.7365304734999],[-115.67270807061638,43.73655831153121],[-115.66799431746982,43.73319217133955],[-115.65911140044466,43.7343974764868],[-115.65137437798917,43.72967733265523],[-115.65323846664536,43.72303368346697],[-115.64804673251253,43.71501582249495],[-115.63366899426926,43.712643781748],[-115.62833558952794,43.707115758830874],[-115.62526709723097,43.69928107936407],[-115.6092568524185,43.69512334934619],[-115.5989332613581,43.6968288297761],[-115.59336169257371,43.702138288808996],[-115.58595246895865,43.70182808746403],[-115.57651584476542,43.70544313744785],[-115.55535533924014,43.69708850831968],[-115.55089702294293,43.69816496118897],[-115.5334022546313,43.69438781845059],[-115.52446269972577,43.69810895391783],[-115.49867243532968,43.69704105115646],[-115.49098581464982,43.6988976290279],[-115.48808479796622,43.69575244255097],[-115.49496037648845,43.68446835057677],[-115.48128015670706,43.674444357025465],[-115.49109545313193,43.66223072782564],[-115.48988126414278,43.64578212952463],[-115.48343998782278,43.63955186101247],[-115.4833562109394,43.630427387339815],[-115.47667340997886,43.62993703800946],[-115.46924500463756,43.6214210338742],[-115.45691919636963,43.61779986151045],[-115.4511918201891,43.6102739731549],[-115.44036259170979,43.613686192809034],[-115.43234726039948,43.6111342256538],[-115.43616871697435,43.62382689807504],[-115.43330980522644,43.62714769672005],[-115.43570765485816,43.62945116141682],[-115.42479889762842,43.63415267606971],[-115.42394508847674,43.6371335455279],[-115.42651287690231,43.641100352672794],[-115.42418797136999,43.65132180006143],[-115.40909149196622,43.66010766453211],[-115.40994604582127,43.665355410886555],[-115.39491962602649,43.68115255940438],[-115.39545988990635,43.68358601567557],[-115.38282395086301,43.69305861842179],[-115.37974504888854,43.68974638815993],[-115.37347507231009,43.6939276787835],[-115.3753539032184,43.703377150672374],[-115.36700755620066,43.70911370284135],[-115.36321238163607,43.71636211229189],[-115.36371508425896,43.72090774131742],[-115.35966498218978,43.72527314940108],[-115.35088385326947,43.729306165606175],[-115.34906115359168,43.73313546397032],[-115.34542831448043,43.73206854093694],[-115.33996600868235,43.73828224191797],[-115.31899043842631,43.74541923841155],[-115.31093046713463,43.753283062892585],[-115.28456883199698,43.75813726463674],[-115.27156050353912,43.750931700721026],[-115.25045255933945,43.76005773631561],[-115.2453803532417,43.75551829946153],[-115.23659167937133,43.754201164649224],[-115.21103826298636,43.727422153035164],[-115.20412644822225,43.71444535639123],[-115.2046417272591,43.7065363599624],[-115.1990298322033,43.70208743912469],[-115.1812042925259,43.703893397037206],[-115.17311180581419,43.70230128104792],[-115.16554675144681,43.697665892246015],[-115.13933740141107,43.697867996382236],[-115.1341745049955,43.69372227869041],[-115.12718363040155,43.69633680774355],[-115.12380818736526,43.699743907613104],[-115.1237981513869,43.70353826468465],[-115.11495924372583,43.70594627241204],[-115.10783281874538,43.71235393376676],[-115.10405551257011,43.70602941674998],[-115.09897389661977,43.70383948102477],[-115.08776544703824,43.70953512477401],[-115.08420672522611,43.707125132563355],[-115.07378931321912,43.70701645756825],[-115.06465643008468,43.71487264029609],[-115.0593738672935,43.71225851112743],[-115.05201072365927,43.716014029015824],[-115.04326410262227,43.71233138682331],[-115.03379624580323,43.71573934638271],[-115.02944324978654,43.72849818842969],[-115.03223043644893,43.73528591659346],[-115.04241893795856,43.74518259199276],[-115.03667960160834,43.751157651337266],[-115.0390511845011,43.757727690877594],[-115.03526381539805,43.76187984301904],[-115.03810949047025,43.76801740533753],[-115.02991137625415,43.78221412211157],[-115.03056157506016,43.79538210998167],[-115.02645038665337,43.80665355280986],[-115.0222552758361,43.80946109164854],[-115.02252691739487,43.814961664031124],[-115.01877983863062,43.81713204533195],[-115.01977532018745,43.82301879245213],[-115.00219369287265,43.83124059581149],[-115.00374174522872,43.84070931087387],[-114.99903985433549,43.84713990569687],[-115.00044896426658,43.85122586647915],[-114.98934465907085,43.85845237431999],[-114.98947180302292,43.861740851697874],[-114.9823209124257,43.86506043689607],[-114.97744278734507,43.864285993502754],[-114.97399814708247,43.867517652695945],[-114.97403454052956,43.878585269159146],[-114.98844137340828,43.88600417668866],[-114.98855060136032,43.90088622312864],[-114.99572185137512,43.90828794796688],[-114.99669433785729,43.91439102095773],[-114.99075164089302,43.92148566952462],[-114.98297104295975,43.92166127109696],[-114.97841530616662,43.929059626440186],[-114.97954703879583,43.93292623774424],[-114.97147857662809,43.93837952152585],[-114.97867033697746,43.94688052694152],[-114.98424064003564,43.94612139715924],[-114.99080622522465,43.9497741094949],[-115.0119399932938,43.94990242918087],[-115.03851128443894,43.957615707424004],[-115.04721836702704,43.94951409135041],[-115.06250866334327,43.94596958983092],[-115.06729455659702,43.94035173396624],[-115.07629031369997,43.9457564501665],[-115.07414242029606,43.9532887237889],[-115.07566516800891,43.95479599480645],[-115.08521035540089,43.952820164663855],[-115.09236627297042,43.95821193491743],[-115.09253220707474,43.96058246883032],[-115.08282443629446,43.97087165889164],[-115.08537599485778,43.976636127854476],[-115.09018137975661,43.976410872501376],[-115.09226349492212,43.97291853529264],[-115.10212518214489,43.9736942721973],[-115.10593087598143,43.970255256496436],[-115.1153644800387,43.97554048024385],[-115.11604712419614,43.97901304951131],[-115.13716577361906,43.984414917538174],[-115.13864104896241,43.99322485573405],[-115.1480576398265,44.00189166496773],[-115.14334280241341,44.00570500735566],[-115.14819758836461,44.00962498142153],[-115.14473349688116,44.01368932342976],[-115.14677279115374,44.02466922369999],[-115.15167325553882,44.03271802392963],[-115.14908707680273,44.040972850535425],[-115.15232171610477,44.05181693580683],[-115.15643962121494,44.05455409618459],[-115.15611982277042,44.062240462386065],[-115.16240048660582,44.0669686320261],[-115.16447434535556,44.0755798324506],[-115.1722320353508,44.0789665235541],[-115.1726340997124,44.08483064684035],[-115.1821952878962,44.091972675276445],[-115.19063954768667,44.08946308553128],[-115.20965666755413,44.096447925179234],[-115.23041799410646,44.0986553690008],[-115.23568743879957,44.09624519264542],[-115.22867446025973,44.09267205862765],[-115.22831970926583,44.08632100080262],[-115.22338240497092,44.082039973184145],[-115.22052142080966,44.07454282636564],[-115.22870638009672,44.06726364905992],[-115.22949851900584,44.063497918094924],[-115.24101454365585,44.05749525494873],[-115.24865975110274,44.056238876401366],[-115.25327378137129,44.044027393289745],[-115.25793974144979,44.04341047534472],[-115.26995874360713,44.04849000162961],[-115.28241855805756,44.041634302824036],[-115.29040298013554,44.042460471431724],[-115.29639323480927,44.03915683084568],[-115.30247179028214,44.03157457311961],[-115.30161082155766,44.02091654822859],[-115.30424027842919,44.01792444308418],[-115.31186970427316,44.01594637115819],[-115.33321787684444,44.0152342335808],[-115.33827134857694,44.02048396577093],[-115.33181669634237,44.024698221858756],[-115.33421248883208,44.0322140612294],[-115.35274766883782,44.03459271391137],[-115.35967752806106,44.041622282366795],[-115.37124503066839,44.04361873483906],[-115.37014625902357,44.04847572079642],[-115.37992235656269,44.054747409013274],[-115.38490989285167,44.06249520556386],[-115.3944476924987,44.06240507575627],[-115.39910626662895,44.06797208141212],[-115.40522307416327,44.06905437515841],[-115.41334232348392,44.06269735662129],[-115.41199140012874,44.055742026698525],[-115.41440438277971,44.05386651066731],[-115.43539888233542,44.047118393817705],[-115.43642544470276,44.05033552015423],[-115.45539255086676,44.0510497940779],[-115.4602934805792,44.04830425626161],[-115.46720412843177,44.050129493034646],[-115.474150661285,44.044831050230464],[-115.47483750955797,44.040466574562416],[-115.48716597414418,44.039701509182855],[-115.49156513997318,44.03545760001692],[-115.50044226915297,44.032869817504334],[-115.52849803708494,44.04241514301345],[-115.53603939659006,44.03847984197463],[-115.53628275469211,44.03599167406714],[-115.55724894024837,44.037054780250386],[-115.56216376599991,44.0344509265433],[-115.57128364781725,44.03906159687943],[-115.58566115160022,44.03643164946108],[-115.5957357081043,44.039136780412754],[-115.60431672112539,44.03308194642638],[-115.60829292328769,44.0328182074484],[-115.61016083607205,44.02965107286939],[-115.61531498110013,44.030290416392546],[-115.62905726548445,44.02385855425785],[-115.63186794578644,44.01695851537131],[-115.63942513809846,44.017744969519605],[-115.6429214728124,44.0156858028455],[-115.64416489657417,44.012178227944304],[-115.64203022367631,44.00893576122358],[-115.65183088025697,43.99769259675794],[-115.67435725081555,43.991745974477276],[-115.67633405288706,43.98383431725392],[-115.67218547749647,43.97873574202853],[-115.68221504996436,43.96524309222631],[-115.68718567816303,43.964517015473284],[-115.68841722799338,43.961257789741396],[-115.68016174646495,43.95923999688001],[-115.68223992431456,43.95270515149236],[-115.67836690084917,43.94522781861481],[-115.67333506593859,43.941717159714464],[-115.67206561708473,43.93545697262062],[-115.66681506665701,43.932110138799004],[-115.66737255932567,43.92766890032726],[-115.66174939849788,43.92704856246256],[-115.66315942650719,43.92334164340356],[-115.65870260590494,43.92219473657699],[-115.65202924444142,43.913321295248174],[-115.64620857282871,43.91010390209258],[-115.64609580102288,43.899914090951704],[-115.64839027343,43.89390947512661],[-115.66000474175705,43.88329654721646],[-115.67596711894129,43.875635575673385],[-115.6846021296941,43.86810100521998],[-115.6900017708146,43.86597326582516],[-115.69792115127278,43.8670620111616],[-115.70274691714874,43.8642328178112],[-115.70457019623987,43.859035225476724],[-115.70146709275335,43.85315016384523],[-115.70626749020569,43.84568839023008],[-115.70819781344439,43.8461632210291],[-115.711492396427,43.83977483507319],[-115.7155691317477,43.837579915777255],[-115.72080994353945,43.8284495863804],[-115.72932954054119,43.8256599785201],[-115.7310416683873,43.81355349733168],[-115.73492294467522,43.80979411835469],[-115.73511747035842,43.799612563835254],[-115.73307846444506,43.79555750688924],[-115.72400400953333,43.794626631035854],[-115.72079532615315,43.78786234812283],[-115.72639820212352,43.78361461724164],[-115.72371947894688,43.7782238178604],[-115.72722336669572,43.77138758766545],[-115.73615539551581,43.76317522561061],[-115.73421857027105,43.75454096197615],[-115.73961802005039,43.746131656245105]]]}},{"type":"Feature","id":"17050112","properties":{"huc8":"17050112","name":"Boise-Mores","area_sq_km":1608.32,"truth_state":"observed","display_geometry":"simplified-from-receipted-wbd"},"geometry":{"type":"Polygon","coordinates":[[[-115.48329841962223,43.627573887903104],[-115.48343290550508,43.6395308098988],[-115.4898576797733,43.64571213713756],[-115.49109545313193,43.66223072782564],[-115.48128015670706,43.674444357025465],[-115.49496037648845,43.68446835057677],[-115.48808479796622,43.69575244255097],[-115.49098581464982,43.6988976290279],[-115.49867243532968,43.69704105115646],[-115.52446269972577,43.69810895391783],[-115.5334022546313,43.69438781845059],[-115.55089702294293,43.69816496118897],[-115.55535533924014,43.69708850831968],[-115.57651584476542,43.70544313744785],[-115.58595246895865,43.70182808746403],[-115.59336169257371,43.702138288808996],[-115.5989332613581,43.6968288297761],[-115.6092568524185,43.69512334934619],[-115.62526709723097,43.69928107936407],[-115.62833558952794,43.707115758830874],[-115.63366899426926,43.712643781748],[-115.64804673251253,43.71501582249495],[-115.65323846664536,43.72303368346697],[-115.65137437798917,43.72967733265523],[-115.65911140044466,43.7343974764868],[-115.66799431746982,43.73319217133955],[-115.67270807061638,43.73655831153121],[-115.68309160535735,43.7365304734999],[-115.6968712533693,43.74240470775574],[-115.71234726559071,43.7427836807856],[-115.7256341688047,43.74685242465743],[-115.73961802005039,43.746131656245105],[-115.73421857027105,43.75454096197615],[-115.73615539551581,43.76317522561061],[-115.72722336669572,43.77138758766545],[-115.72371947894688,43.7782238178604],[-115.72639820212352,43.78361461724164],[-115.72079532615315,43.78786234812283],[-115.72400400953333,43.794626631035854],[-115.73307846444506,43.79555750688924],[-115.73511747035842,43.799612563835254],[-115.73492294467522,43.80979411835469],[-115.7310416683873,43.81355349733168],[-115.72932954054119,43.8256599785201],[-115.72080994353945,43.8284495863804],[-115.7155691317477,43.837579915777255],[-115.711492396427,43.83977483507319],[-115.70819781344439,43.8461632210291],[-115.70626749020569,43.84568839023008],[-115.70146709275335,43.85315016384523],[-115.70457019623987,43.859035225476724],[-115.70274691714874,43.8642328178112],[-115.69792115127278,43.8670620111616],[-115.6900017708146,43.86597326582516],[-115.6846021296941,43.86810100521998],[-115.67596711894129,43.875635575673385],[-115.66000474175705,43.88329654721646],[-115.64839027343,43.89390947512661],[-115.64609580102288,43.899914090951704],[-115.64620857282871,43.91010390209258],[-115.65202924444142,43.913321295248174],[-115.65870260590494,43.92219473657699],[-115.66315942650719,43.92334164340356],[-115.66174939849788,43.92704856246256],[-115.66733394524319,43.92762444752651],[-115.66681506665701,43.932110138799004],[-115.67200642080245,43.93538672673717],[-115.67340613615228,43.94183113852689],[-115.67838839753391,43.94525836262638],[-115.6824224673702,43.953333184566816],[-115.68017155337287,43.959254557219325],[-115.68515156447471,43.9590551545591],[-115.69569450256789,43.96532755973334],[-115.69319532836205,43.96984941842627],[-115.693880834552,43.97579690656137],[-115.68664138174587,43.98357744862343],[-115.69610803302582,43.99060298984211],[-115.69220478484435,44.002326325438325],[-115.69481981297575,44.006374393538366],[-115.70016416099389,44.008511323983164],[-115.69779336412698,44.01072039340789],[-115.69819320156499,44.02216479026495],[-115.70582293014125,44.01933209885561],[-115.70845150217221,44.02249449254069],[-115.71285181514983,44.02295429526719],[-115.72160857008153,44.02016856516713],[-115.72873749776838,44.021301456207446],[-115.73004491122278,44.025927378976235],[-115.73906751986787,44.02542341472879],[-115.741161119096,44.04085429698265],[-115.75025687306312,44.04715366539811],[-115.75480993467333,44.04566298681761],[-115.76699027784896,44.047392529770576],[-115.77028434340197,44.045241197698815],[-115.78367044038627,44.044468675981804],[-115.7995030729957,44.04794769364219],[-115.81592332597182,44.03505620337932],[-115.82570425015898,44.03169510926544],[-115.83335887823829,44.02370558008743],[-115.84250683959476,44.02321234670361],[-115.84691583658625,44.017473886358786],[-115.84693065160191,44.01197083092566],[-115.86990965358774,44.006815086291034],[-115.87955870419285,44.007874332589516],[-115.88905229684647,43.999576539700485],[-115.90182336137318,43.999949828042105],[-115.91256351021397,43.995718995396714],[-115.91464608711355,43.99015607557891],[-115.9125298826796,43.98522554445572],[-115.9154030947085,43.98396706792475],[-115.9253772348352,43.98469971114465],[-115.93412694607674,43.98074347009131],[-115.93734691409352,43.98313781073693],[-115.94690705304511,43.9822639929852],[-115.950380280395,43.98400436660906],[-115.95411029027055,43.980727812900554],[-115.96724126571411,43.983320105734606],[-115.96776889748446,43.98004280320822],[-115.97255760695667,43.9764732982827],[-115.9863072215937,43.97469378385518],[-116.00217160425856,43.98530610477409],[-116.0219890421958,43.98357048395639],[-116.03068859420682,43.99196777156317],[-116.03592141368748,43.98774889044906],[-116.04896044746006,43.98329937711269],[-116.05013537198646,43.974056185028815],[-116.04513484156693,43.96444089934895],[-116.03021847617426,43.95808211225131],[-116.03563810301318,43.9567065890132],[-116.03849809812932,43.944269677913155],[-116.04237091857547,43.94432661962383],[-116.05096898880721,43.93893894882185],[-116.05141499066767,43.93078803652701],[-116.04256988193617,43.921499433537626],[-116.04129744438737,43.914384195076494],[-116.03549714476868,43.91092898529924],[-116.03585052044191,43.90829989124623],[-116.01703496006631,43.91024502947728],[-116.01351731282223,43.90779371388615],[-116.01252775924797,43.903982196237784],[-116.01590325258992,43.89888233878471],[-116.01613459482671,43.891830484995666],[-116.01292276824134,43.89030494179286],[-116.01267266019826,43.88393382155127],[-116.0205119423741,43.877112949202946],[-116.02474269385027,43.857159627203444],[-116.03585890531676,43.85467199249685],[-116.03309972093844,43.836934467373304],[-116.03779117340807,43.83485930887217],[-116.04087667620324,43.8294476077121],[-116.04852763825787,43.832978106402955],[-116.05647411370161,43.83147578650471],[-116.0561021635633,43.82504939062742],[-116.06144949129322,43.81806864844865],[-116.05967805936702,43.81373085685616],[-116.06614085123636,43.80735032760203],[-116.07317147718,43.80702378121156],[-116.08485822125982,43.79885637393378],[-116.09051763629586,43.79138685762016],[-116.08584949241289,43.781979073334234],[-116.08624883937077,43.77285285307488],[-116.08847085007383,43.77132678698378],[-116.08492241217508,43.76181096441364],[-116.09920965144167,43.75374632929327],[-116.08651019072796,43.74340679766986],[-116.08353337420068,43.73351846160671],[-116.09199319999838,43.72766843946249],[-116.09324836024933,43.72408269849873],[-116.08853093119666,43.70889393776666],[-116.08965968770735,43.70219070422285],[-116.10022930396784,43.696164862902805],[-116.0936530063691,43.68601330464124],[-116.09493190190646,43.66930599414201],[-116.0924941455166,43.66554145558744],[-116.08614781213898,43.66540477177],[-116.07964689307403,43.659519045753015],[-116.06614544252577,43.65603515973827],[-116.05888285450783,43.646273082153456],[-116.06189901724454,43.64345402667413],[-116.06194841650033,43.63942074601928],[-116.05825481174996,43.634561368568036],[-116.0578643679949,43.62905283899467],[-116.05532367185998,43.62800402687282],[-116.06546486539182,43.61827887172447],[-116.05856910621675,43.60691633905615],[-116.06139102084968,43.60520341707428],[-116.05681901556675,43.60028119080419],[-116.05784580430954,43.59102024656482],[-116.05333668468975,43.5827480544271],[-116.06268429751644,43.573460255551396],[-116.06478044706166,43.56111295367189],[-116.05629883981328,43.54271378826261],[-116.0520029362245,43.540019161494016],[-116.049977076257,43.532844028321506],[-116.05076222806983,43.52970017283906],[-116.05670482172783,43.52569046694178],[-116.05248548963556,43.51902341180391],[-116.0534730615263,43.514925139264086],[-116.05034013397234,43.50873664424644],[-116.04181170024313,43.500977421456454],[-116.02000433045818,43.50624574234242],[-116.01405697842412,43.51005940157585],[-116.00751085613406,43.50832221904798],[-116.0011835625489,43.51684174123283],[-115.99714657318793,43.512395054710645],[-115.98651764835574,43.50729175300407],[-115.97089989725384,43.517538561508964],[-115.95882089392373,43.5166398344193],[-115.94879708055512,43.5255469477971],[-115.94171880886715,43.527676197027844],[-115.93585713455163,43.52464568900522],[-115.93437139293694,43.51935799110114],[-115.92375657884119,43.518777340045624],[-115.90523138989805,43.531589607160356],[-115.89718944240424,43.54225243692511],[-115.88757716882685,43.54540240908031],[-115.88571498549737,43.55420772774737],[-115.85616550250423,43.556622031623746],[-115.847449900294,43.564914400924124],[-115.84504004647518,43.568282987864386],[-115.84452712371929,43.577206344589285],[-115.84803656485325,43.583692857688696],[-115.85621690230816,43.58854856036447],[-115.86183929417808,43.59577846666297],[-115.85738161658306,43.60115681234111],[-115.83926014400332,43.60195441485642],[-115.82570955471074,43.5977636452026],[-115.8191639399688,43.59932244138647],[-115.79805242945746,43.5915676791104],[-115.78490065262515,43.592902010684654],[-115.76676842451651,43.6064539188557],[-115.74793776435934,43.60358309196597],[-115.73790973968867,43.612902013905504],[-115.73150388663528,43.62386309573184],[-115.7264372213462,43.62555531462391],[-115.72064034880033,43.6221761518675],[-115.70656131206714,43.62433418545498],[-115.70242340776376,43.632607489680886],[-115.69352809937759,43.636687473955696],[-115.6828538374713,43.634334497762964],[-115.66910877639442,43.64529843843298],[-115.6621239160213,43.64457957963271],[-115.6557527918368,43.63652353692366],[-115.637853148335,43.63659237821798],[-115.63371248800037,43.62789984144369],[-115.60189355337572,43.61763557119825],[-115.5921141302734,43.617123934988975],[-115.58092707586701,43.62218538410245],[-115.56997777138031,43.62942340108283],[-115.56992743967324,43.63225132543535],[-115.5580574141226,43.64254317001299],[-115.55227610848229,43.64384636994958],[-115.53866913193933,43.63682723522586],[-115.53125930106314,43.62721150809173],[-115.52137878066044,43.624696297144965],[-115.52714904870086,43.61712805495278],[-115.52296557915137,43.612925002117194],[-115.50532342335273,43.61509457170734],[-115.50277811257217,43.618882718286876],[-115.48704366133173,43.620610185108994],[-115.48329841962223,43.627573887903104]]]}},{"type":"Feature","id":"17050113","properties":{"huc8":"17050113","name":"South Fork Boise","area_sq_km":3383.57,"truth_state":"observed","display_geometry":"simplified-from-receipted-wbd"},"geometry":{"type":"Polygon","coordinates":[[[-115.9371965073689,43.514233398870786],[-115.93271506484302,43.50847729614671],[-115.92743159475337,43.50700732160695],[-115.92314409580239,43.509628487901274],[-115.91147849177612,43.5049368494178],[-115.91329764310854,43.49825706389657],[-115.90920860536002,43.494317466942356],[-115.88615326543965,43.49325009724865],[-115.88266100099223,43.48920760554862],[-115.88209722820143,43.48326045323814],[-115.87697910920949,43.479409253389896],[-115.86864533591077,43.47978603424613],[-115.85906206354402,43.48553562387826],[-115.85213319516255,43.48620517275211],[-115.84034738487317,43.48372586798922],[-115.83574609002038,43.48554497809447],[-115.82623500357494,43.480131876291644],[-115.8149794759843,43.47732988018465],[-115.81429528852118,43.46832552131154],[-115.80534063383406,43.46476002573665],[-115.79430005781956,43.455643551302664],[-115.78929111557568,43.455214150837705],[-115.78515530524525,43.451894855981045],[-115.7852783277268,43.44689862109151],[-115.77927190607289,43.44172763037657],[-115.77778438040404,43.43671872300126],[-115.77976230357302,43.42994946362004],[-115.79034366440754,43.42706962401068],[-115.78465003613562,43.42153033221412],[-115.76795285950683,43.42475913606178],[-115.76694139871773,43.42211404006596],[-115.76137860647364,43.420257444121205],[-115.759635084305,43.41561175642297],[-115.74783208385436,43.41048352662525],[-115.74490512382536,43.40422132405956],[-115.74690470986744,43.399635996623495],[-115.74379840748017,43.38904071047653],[-115.73802133020988,43.38399888249309],[-115.73256015988231,43.384702784256014],[-115.7260466239792,43.38139768657562],[-115.72041389789024,43.38389573292391],[-115.70848518270716,43.382471849424284],[-115.70202535617655,43.39105482667799],[-115.6966726915555,43.394929539131226],[-115.69078067484463,43.39529595927905],[-115.68560591258249,43.40081160422222],[-115.67258939238756,43.40237074599916],[-115.66351470930375,43.398942766381026],[-115.65830176684537,43.406161829833565],[-115.65860497969479,43.41352927017453],[-115.65268133060782,43.41413877310458],[-115.64020052971574,43.401555666383416],[-115.63923977523115,43.39711021002511],[-115.63240782967894,43.39098485739648],[-115.62181330583056,43.37243374175838],[-115.61669601059374,43.36920956814039],[-115.61548585863348,43.36423935852187],[-115.610027338336,43.360564360296415],[-115.60569648489277,43.35291475839356],[-115.59684468640738,43.354623468670084],[-115.59312660615879,43.34975379879977],[-115.58290415192468,43.349115774456465],[-115.5765115005127,43.34437534780392],[-115.57168598706332,43.335948778665],[-115.56339984513593,43.33522206245556],[-115.55403764277068,43.33769292611415],[-115.55429932650453,43.332259209081016],[-115.55121440312271,43.32917309305332],[-115.52714257723758,43.3198553121863],[-115.50583897996901,43.31714835751478],[-115.48999867395041,43.31942685971722],[-115.48638433115084,43.31736687933577],[-115.48673037836795,43.30976321950449],[-115.47510115251745,43.3029616216843],[-115.47527888599305,43.30080637880591],[-115.47147009117212,43.30107211169161],[-115.44992200482257,43.28899376990589],[-115.43912392901902,43.28950835186754],[-115.4370158947626,43.285311764463366],[-115.44538076054992,43.27107833705705],[-115.44450467677247,43.26589867656638],[-115.43927892972803,43.26628386461316],[-115.42847988823556,43.25722982912319],[-115.42128761494813,43.2615055346045],[-115.41125559187616,43.26101551411885],[-115.40987558017375,43.25835961865389],[-115.40542919979173,43.25768135740248],[-115.40136506244457,43.25100030736339],[-115.40349795038995,43.2454328658954],[-115.38699052310201,43.24075908223599],[-115.37311768026926,43.23060579614587],[-115.35845275691783,43.22606428648846],[-115.35168131828992,43.23005901702903],[-115.34661423348759,43.22972844116103],[-115.34585395243171,43.23467526881857],[-115.34264697135899,43.23717387282676],[-115.35243663795045,43.239385615722014],[-115.35052337461731,43.248257933284336],[-115.3565395636533,43.25192195878748],[-115.35450007534462,43.257790471442085],[-115.3474276777403,43.2604632522864],[-115.35097453999404,43.26813522769987],[-115.34928496255652,43.27162066335316],[-115.35292790412147,43.27739549012567],[-115.34376134314705,43.28206744845507],[-115.34129570484735,43.290141965643876],[-115.33597267744418,43.28837243803835],[-115.3299245317403,43.290753978152274],[-115.32287568796272,43.286230813115765],[-115.318496333579,43.28813831265767],[-115.31651263963262,43.29602677383046],[-115.31302033386274,43.298668397217135],[-115.31385500261065,43.30312619465869],[-115.30779778212576,43.303910825500324],[-115.30261023234551,43.309835396431204],[-115.30603980875914,43.31646316131021],[-115.3002701147422,43.317453599230454],[-115.29989892817186,43.319428559627966],[-115.26499752076948,43.32439406257351],[-115.26220649830086,43.330425012247034],[-115.25906665102426,43.33102539388743],[-115.25935605586945,43.341706613361545],[-115.25498418894361,43.34395732307839],[-115.23748467123905,43.34825090134491],[-115.22778245653879,43.34315012802369],[-115.21051070667451,43.35674104694912],[-115.19575108112923,43.3550662543893],[-115.18856797604762,43.36388771732171],[-115.17096607016362,43.367474501678316],[-115.16920136572057,43.369955085322324],[-115.16170141136352,43.36930421812381],[-115.15876555172498,43.36592979859894],[-115.15233185449107,43.36446063865843],[-115.1440648350011,43.36789967911966],[-115.130021909644,43.379318465896574],[-115.11175110472472,43.374575322480446],[-115.10565854361823,43.382528096481714],[-115.09236246680855,43.37899721476153],[-115.08480093024383,43.38819954111474],[-115.07572523655534,43.387018022236965],[-115.06650467335761,43.38957999082312],[-115.059899715908,43.39921972916277],[-115.05417031582311,43.4027032916255],[-115.04779815857603,43.420247812286455],[-115.04119703783101,43.42155623556867],[-115.04280752848923,43.42745708855882],[-115.02990852050989,43.428268867567844],[-115.02802206649805,43.42554131060884],[-115.01709759503908,43.429322384318596],[-115.01169614201663,43.4267574699886],[-115.00367796304693,43.43316679133865],[-115.00006308035988,43.4304873654237],[-114.99651106536965,43.43147229293595],[-114.99391244227195,43.435727755699205],[-114.99725960185152,43.44192519133265],[-114.98881371700871,43.44480175108755],[-114.98679237017718,43.45017439879143],[-114.97847804899764,43.45537241091045],[-114.97815925576793,43.45849553973972],[-114.97375270578726,43.46188699132891],[-114.9741160689298,43.465979558505936],[-114.95581798487028,43.476711177611534],[-114.9599332525268,43.487906528513356],[-114.96507632492067,43.4940094950591],[-114.96444380136617,43.49724023569205],[-114.95788594438358,43.500968167370935],[-114.94237461220179,43.49121590512062],[-114.93039036496447,43.49596420876468],[-114.92766626518787,43.499872076007726],[-114.92889938257838,43.51073914164356],[-114.92620456608344,43.51367013893543],[-114.92860253788601,43.518969236002356],[-114.91491629579902,43.53007914349616],[-114.87956130385686,43.537812089951885],[-114.867532538809,43.53227567598005],[-114.856381231961,43.53487776470701],[-114.84373269404578,43.53152661331491],[-114.83193213701269,43.51827492196627],[-114.80285347992458,43.51463118761738],[-114.79771629329244,43.517306097892124],[-114.79304371263031,43.51515083109671],[-114.78567509466275,43.51735559989161],[-114.77802254887827,43.51095370006998],[-114.78260208383989,43.50998141361427],[-114.78379354904564,43.50659880120344],[-114.77923750772362,43.50101554225284],[-114.77957425468261,43.49265316854259],[-114.77534659251269,43.48357086223382],[-114.76442264746647,43.48287244920175],[-114.75545369788821,43.47718885217323],[-114.74872348294868,43.47724560251509],[-114.74262898507445,43.47323737745184],[-114.72190512006608,43.46968100348196],[-114.71206857938307,43.46020201185642],[-114.70709570270124,43.468057897086766],[-114.70000800499099,43.46937329976171],[-114.69856127631076,43.47387958713804],[-114.69098607637056,43.47813579934532],[-114.68339143598931,43.49267907012178],[-114.67355644939173,43.49767021537885],[-114.67192108617994,43.500585532305195],[-114.67491723535043,43.50572678776126],[-114.67390400937178,43.50850127546019],[-114.65817263845443,43.511021510409776],[-114.66400626107858,43.518652344338236],[-114.65941822985098,43.52507175952649],[-114.65920471827425,43.52995648915053],[-114.66533498346983,43.532822362189556],[-114.66796148757902,43.53850855991682],[-114.66246813241146,43.54671254494645],[-114.65546021587825,43.54774818919806],[-114.65555201651375,43.55213779579332],[-114.64614108503592,43.557657464591365],[-114.64174174673037,43.568735052473436],[-114.63641320187475,43.57413658679517],[-114.64200163383367,43.578282145038095],[-114.64257500781828,43.583285240563384],[-114.65198387047597,43.5931635207629],[-114.66272948646359,43.594731483241986],[-114.68249659898197,43.59059628757753],[-114.68158457271166,43.6109298644978],[-114.67090904507917,43.623983102854645],[-114.66886508316037,43.629676640343455],[-114.67240067425224,43.63656889129647],[-114.66275547831802,43.644487884464304],[-114.66131629458786,43.655454714261154],[-114.66256987110896,43.66115962903542],[-114.66867512810533,43.66865530324121],[-114.67917469912989,43.66994965713936],[-114.67917078157693,43.67410479329482],[-114.68765667019595,43.68376574664691],[-114.68763409014299,43.690817306786734],[-114.67633903937478,43.697997801720206],[-114.68218149603143,43.708337618835664],[-114.68037649585969,43.72313352559351],[-114.66621201676654,43.73901997117323],[-114.67047537888418,43.74430583161672],[-114.6815373033614,43.74271027231702],[-114.69081333393467,43.75128664304335],[-114.6891606565941,43.76647050509881],[-114.69547324026648,43.775431269611175],[-114.6926145872334,43.78435125009057],[-114.70466089009054,43.80776657986377],[-114.71485747464111,43.814761951471326],[-114.71937742794321,43.81487503060675],[-114.72271010488375,43.806930587864606],[-114.74176993694803,43.806525568014024],[-114.75512380417655,43.80064480600088],[-114.7603914351711,43.79171556908765],[-114.77521635655944,43.79247502222278],[-114.78046901353652,43.80051963843434],[-114.78684573961515,43.802546694819675],[-114.80059299886949,43.80258141150409],[-114.80265052085751,43.80036870396768],[-114.81569407585091,43.79830353285291],[-114.82759672911098,43.788167380966755],[-114.83218972532715,43.79325385864866],[-114.83980124505261,43.79452731859097],[-114.8533526527104,43.79114649313347],[-114.85598225421072,43.79564420918373],[-114.85387686459447,43.805579697822374],[-114.84767773005763,43.810799143462766],[-114.84766578426098,43.816379856145915],[-114.85023102686104,43.81787874148928],[-114.85919556121964,43.817897591688286],[-114.86665051267592,43.82230931895251],[-114.88231490879893,43.82321047899325],[-114.89138101836168,43.829608318363874],[-114.90102525220026,43.828675077586816],[-114.91065888232521,43.83157129647343],[-114.91613013624182,43.836753417258286],[-114.92423169683623,43.83719446174365],[-114.93287485980028,43.84088571114302],[-114.95177516634145,43.85437928767317],[-114.95903040344542,43.85377858600667],[-114.96993663551088,43.84858720403114],[-114.97388354271347,43.85359894411962],[-114.98904619741096,43.858600812004106],[-115.00066612479999,43.8508754749021],[-114.99901591602979,43.84725340485988],[-115.00350491518385,43.84190013182787],[-115.00206962205716,43.83170764866763],[-115.00402183274778,43.82893574757165],[-115.01979492412188,43.8229896420239],[-115.01877983863062,43.81713204533195],[-115.02252691739487,43.814961664031124],[-115.0222552758361,43.80946109164854],[-115.02645038665337,43.80665355280986],[-115.03011553636881,43.796875983004334],[-115.02991137625415,43.78221412211157],[-115.03810949047025,43.76801740533753],[-115.03526381539805,43.76187984301904],[-115.0390511845011,43.757727690877594],[-115.03667960160834,43.751157651337266],[-115.0424209798292,43.745099997140315],[-115.03223043644893,43.73528591659346],[-115.0294387088028,43.72837362866665],[-115.03320718453881,43.71633412852527],[-115.03837062533344,43.71385654336772],[-115.04355989448914,43.7123633436912],[-115.05204906645054,43.71601669690294],[-115.05964085198583,43.7122497790763],[-115.06465643008468,43.71487264029609],[-115.07378931321912,43.70701645756825],[-115.08420672522611,43.707125132563355],[-115.08776544703824,43.70953512477401],[-115.09897389661977,43.70383948102477],[-115.10405551257011,43.70602941674998],[-115.10783281874538,43.71235393376676],[-115.11495924372583,43.70594627241204],[-115.1237981513869,43.70353826468465],[-115.12380818736526,43.699743907613104],[-115.12718363040155,43.69633680774355],[-115.1341745049955,43.69372227869041],[-115.13933740141107,43.697867996382236],[-115.16554675144681,43.697665892246015],[-115.17311180581419,43.70230128104792],[-115.1812042925259,43.703893397037206],[-115.1990298322033,43.70208743912469],[-115.2046417272591,43.7065363599624],[-115.20412644822225,43.71444535639123],[-115.21103826298636,43.727422153035164],[-115.2365068730186,43.754159071461714],[-115.2453803532417,43.75551829946153],[-115.25045255933945,43.76005773631561],[-115.27156050353912,43.750931700721026],[-115.28448770604196,43.75813062783247],[-115.30311944326266,43.75507658748847],[-115.3110516363917,43.753234039717974],[-115.3178638100245,43.74618130952916],[-115.3273829022558,43.74124647261799],[-115.34004164323599,43.73824457046473],[-115.34542831448043,43.73206854093694],[-115.34911376881617,43.73310547000568],[-115.3508175917375,43.72935776012461],[-115.36349214755826,43.72119802056003],[-115.36321238163607,43.71636211229189],[-115.36700755620066,43.70911370284135],[-115.37536181288449,43.703356214800415],[-115.37347507231009,43.6939276787835],[-115.37974504888854,43.68974638815993],[-115.38282395086301,43.69305861842179],[-115.39545988990635,43.68358601567557],[-115.39491962602649,43.68115255940438],[-115.40994604582127,43.665355410886555],[-115.40909149196622,43.66010766453211],[-115.42482179388838,43.65033247048572],[-115.42651287690231,43.641100352672794],[-115.42394508847674,43.6371335455279],[-115.42479889762842,43.63415267606971],[-115.43570765485816,43.62945116141682],[-115.43330980522644,43.62714769672005],[-115.43616871697435,43.62382689807504],[-115.43234726039948,43.6111342256538],[-115.44036259170979,43.613686192809034],[-115.4511918201891,43.6102739731549],[-115.45691919636963,43.61779986151045],[-115.46917819064166,43.621385479847966],[-115.47658450281686,43.62987885581167],[-115.48108289475552,43.63048293047486],[-115.4833562109394,43.630427387339815],[-115.48704366133173,43.620610185108994],[-115.50277811257217,43.618882718286876],[-115.50532342335273,43.61509457170734],[-115.52310275908178,43.61295918946428],[-115.52714904870086,43.61712805495278],[-115.52137878066044,43.624696297144965],[-115.53125930106314,43.62721150809173],[-115.53866913193933,43.63682723522586],[-115.55227610848229,43.64384636994958],[-115.5580574141226,43.64254317001299],[-115.56992743967324,43.63225132543535],[-115.56997777138031,43.62942340108283],[-115.58092707586701,43.62218538410245],[-115.5921141302734,43.617123934988975],[-115.60219207791769,43.61767640563005],[-115.63371248800037,43.62789984144369],[-115.637853148335,43.63659237821798],[-115.6557527918368,43.63652353692366],[-115.6621239160213,43.64457957963271],[-115.66910877639442,43.64529843843298],[-115.6828538374713,43.634334497762964],[-115.69352809937759,43.636687473955696],[-115.70242340776376,43.632607489680886],[-115.70656131206714,43.62433418545498],[-115.72064034880033,43.6221761518675],[-115.7264372213462,43.62555531462391],[-115.73150388663528,43.62386309573184],[-115.73790973968867,43.612902013905504],[-115.74793776435934,43.60358309196597],[-115.76676842451651,43.6064539188557],[-115.78490065262515,43.592902010684654],[-115.79805242945746,43.5915676791104],[-115.8191639399688,43.59932244138647],[-115.82570955471074,43.5977636452026],[-115.83926014400332,43.60195441485642],[-115.8578391797612,43.60095314652368],[-115.8617947781642,43.595698132304065],[-115.85621690230816,43.58854856036447],[-115.84803656485325,43.583692857688696],[-115.84450114893284,43.57710282410782],[-115.84504004647518,43.568282987864386],[-115.84872845986146,43.5635120101663],[-115.85616550250423,43.556622031623746],[-115.88571498549737,43.55420772774737],[-115.88611201570015,43.5470523403416],[-115.8972203974506,43.54222946794869],[-115.90525883971819,43.53156655922545],[-115.9238912066579,43.518715520996494],[-115.93424810545237,43.51903935049043],[-115.9371965073689,43.514233398870786]]]}},{"type":"Feature","id":"17050114","properties":{"huc8":"17050114","name":"Lower Boise","area_sq_km":3440.77,"truth_state":"observed","display_geometry":"simplified-from-receipted-wbd"},"geometry":{"type":"Polygon","coordinates":[[[-117.02239295624896,43.81288873895705],[-117.00960359842983,43.790232037974896],[-117.01066410453849,43.78394185127016],[-117.00877168571319,43.78024236684679],[-116.99449813587322,43.777075304017465],[-116.99483051971487,43.77138668989421],[-116.98759208290332,43.771640120978],[-116.98188713855374,43.763769296023675],[-116.96950765325263,43.763326057429076],[-116.96622335598002,43.757454952018165],[-116.94789414080435,43.746995197515496],[-116.94836076259384,43.73432996826284],[-116.93722337424283,43.72955825856401],[-116.93322475192765,43.7158247820837],[-116.93616327596929,43.710537333550754],[-116.94454011001118,43.70613082820418],[-116.93829010567643,43.695592611162596],[-116.93975263841743,43.68863565612876],[-116.94471424663236,43.686937844999385],[-116.9461510237759,43.682156842728666],[-116.92242754479499,43.66709382592694],[-116.91972558220192,43.66866651150007],[-116.90157067253068,43.658189929037825],[-116.89252678459314,43.655636115327425],[-116.88684056472734,43.64471403048042],[-116.87061161877074,43.62917166276155],[-116.8602239374064,43.63205116994273],[-116.84272805069222,43.62694175462256],[-116.82599094305075,43.61194306237191],[-116.81166341164871,43.61225148452247],[-116.8113739304467,43.60827405267752],[-116.80644351712836,43.61005691796696],[-116.80259037427851,43.60667389201137],[-116.79337499974983,43.60506511350136],[-116.78562578086773,43.5964732563826],[-116.77379467303015,43.59604664697296],[-116.77819465452944,43.57972097774011],[-116.76313091063292,43.566922988091285],[-116.75177085507583,43.561995737817384],[-116.75065420066865,43.55904067322971],[-116.75291592858534,43.5549786238462],[-116.74699273045265,43.544505866239376],[-116.73830283083932,43.537642169056575],[-116.73759853818184,43.533584756829995],[-116.73158629095335,43.52815536578541],[-116.7327618425038,43.51582816797079],[-116.72372796629011,43.51357686633104],[-116.72228153674884,43.50761718923804],[-116.71806198995922,43.50914735621508],[-116.70460843937856,43.50210107661207],[-116.70564527308288,43.49752496659689],[-116.7014369624208,43.49311833040822],[-116.70464702740992,43.48718091906998],[-116.69996866698725,43.48681437976991],[-116.68809394145104,43.4783786771631],[-116.66302383306198,43.47201476868927],[-116.65781202427752,43.452399731968036],[-116.65371023674017,43.45017205952082],[-116.64381850536273,43.452895413371046],[-116.62717742852347,43.461607767039446],[-116.60157026593505,43.44349215406044],[-116.5921023372508,43.44322155467337],[-116.58384286001595,43.44686898111],[-116.57704988966898,43.44551583236819],[-116.57446208138897,43.44900313221788],[-116.56560194923269,43.44160462300775],[-116.54204833987538,43.44009609444845],[-116.52005121446139,43.431408283275566],[-116.5030757451475,43.439497712433784],[-116.46878495138984,43.44036966776243],[-116.44487059029251,43.4369361333488],[-116.441350012744,43.43262798767595],[-116.44175580062246,43.42795767678907],[-116.44714419393729,43.421405685255316],[-116.44381669847928,43.41743648944635],[-116.44848412101506,43.413443402057894],[-116.43679620463377,43.402267141456946],[-116.4198289054974,43.39854880962175],[-116.42048394532445,43.389882094034256],[-116.41827741439039,43.385003603455004],[-116.39393011203853,43.37205802842359],[-116.39089474152442,43.376512607927864],[-116.37394480592414,43.37393057295086],[-116.36848314781139,43.371157659816916],[-116.3656714631929,43.364661879077985],[-116.35099640415017,43.367480756527776],[-116.35030884710642,43.362461624122986],[-116.337389851612,43.35447877763638],[-116.3377969016234,43.34734459139516],[-116.33149113436743,43.34125515919664],[-116.32071545536051,43.337863791654236],[-116.32106346180328,43.33404798148926],[-116.31533732799276,43.33073353482802],[-116.31326494337839,43.32325703073266],[-116.30798111486097,43.31627754929829],[-116.29872222234667,43.311754933677626],[-116.28998976055517,43.31497359303419],[-116.28062318519115,43.31313490214533],[-116.27617460932657,43.31090047510794],[-116.27108605658562,43.299089150035776],[-116.25083966591367,43.29765270174425],[-116.23541998434877,43.28922313367094],[-116.21429994613044,43.28236573491613],[-116.21837111459133,43.26755588193906],[-116.21612859445203,43.26501064259006],[-116.20270039792196,43.26284347493],[-116.19116945944162,43.26416991983301],[-116.18609613763627,43.25732667915971],[-116.18148285476603,43.256761821919774],[-116.17790184665003,43.26000958708728],[-116.17505363922704,43.25422440768591],[-116.1694071707109,43.25375540710687],[-116.16668776103839,43.256008645921234],[-116.15914077448632,43.25205499987476],[-116.15305177879321,43.256003862101906],[-116.14582952872478,43.265560922995114],[-116.14727810254462,43.268374800952344],[-116.14253908877227,43.27175114060371],[-116.14027569088744,43.27804571493466],[-116.13225945317704,43.28325773822888],[-116.12805567810885,43.28224697061855],[-116.11716486113369,43.28581726059637],[-116.11935203427169,43.29022501822263],[-116.09213105636023,43.307385294854306],[-116.09099102150114,43.313204233749815],[-116.07671006325499,43.33025698263291],[-116.05552712050888,43.333962220302396],[-116.03932902449579,43.34374605052892],[-116.02739878038008,43.34381260596256],[-116.00770252697127,43.34812761197742],[-115.99988032805719,43.34664906466006],[-115.98324647277448,43.35189591177935],[-115.97727942068626,43.35563446279599],[-115.96138137275783,43.37618022088898],[-115.95409318455091,43.380425990463],[-115.95319468601048,43.38635550805649],[-115.94563092611543,43.39344950495868],[-115.92832541486781,43.39673645373845],[-115.91177289574587,43.39429060080686],[-115.90930745956715,43.39784991507035],[-115.90196285356713,43.40019732197411],[-115.90059443462346,43.403237194539614],[-115.89056998614595,43.405309629050436],[-115.8860476388336,43.41079748279199],[-115.86793202326953,43.41798661739994],[-115.857134907765,43.426210602230334],[-115.84199076554887,43.42301602543859],[-115.8349567915842,43.42970217036794],[-115.82622574553761,43.4319849712042],[-115.8159945408143,43.42823115297544],[-115.8112470316743,43.42977415773698],[-115.79037571270364,43.42711359063323],[-115.7821492368774,43.42870088357884],[-115.77839759916306,43.43285545287235],[-115.77920685097833,43.44157498173681],[-115.78530274483452,43.44693847431189],[-115.78519430829826,43.45195612913988],[-115.81425983830512,43.46829117557463],[-115.8149794759843,43.47732988018465],[-115.82623500357494,43.480131876291644],[-115.83574609002038,43.48554497809447],[-115.84034738487317,43.48372586798922],[-115.8521033468406,43.48620416968765],[-115.85906206354402,43.48553562387826],[-115.86864533591077,43.47978603424613],[-115.87703445351582,43.479428150143505],[-115.88209722820143,43.48326045323814],[-115.88266100099223,43.48920760554862],[-115.88615326543965,43.49325009724865],[-115.90916981520773,43.494302741013264],[-115.91329194689133,43.498239596201216],[-115.91115785610177,43.50416298865322],[-115.91411254442863,43.50664743761519],[-115.92020065438288,43.506890060715904],[-115.92319048929524,43.50963518673661],[-115.92743159475337,43.50700732160695],[-115.93302831367079,43.508644741985464],[-115.9371965073689,43.514233398870786],[-115.93387363823462,43.51919888043366],[-115.93619169680784,43.5214958870205],[-115.93526306338289,43.52359281219953],[-115.93948903312678,43.527605491411535],[-115.94874080020425,43.525579800681335],[-115.95904706994934,43.51654671362948],[-115.97092755907639,43.517527853374446],[-115.98651764835574,43.50729175300407],[-115.99714657318793,43.512395054710645],[-116.0011835625489,43.51684174123283],[-116.00756108812811,43.50830484156908],[-116.01405697842412,43.51005940157585],[-116.02000433045818,43.50624574234242],[-116.04076431313085,43.500753671190324],[-116.04435084498753,43.502995790790884],[-116.05042380754948,43.5088578647421],[-116.05352686791689,43.515118502814936],[-116.05250233664039,43.519069725050194],[-116.05664039725059,43.525135883681195],[-116.0500914856916,43.53124631387171],[-116.05197800797536,43.53996262577491],[-116.05629883981328,43.54271378826261],[-116.06478044706166,43.56111295367189],[-116.06268429751644,43.573460255551396],[-116.05333668468975,43.5827480544271],[-116.05784580430954,43.59102024656482],[-116.05681901556675,43.60028119080419],[-116.06139102084968,43.60520341707428],[-116.05856910621675,43.60691633905615],[-116.06546486539182,43.61827887172447],[-116.05532367185998,43.62800402687282],[-116.0578643679949,43.62905283899467],[-116.05825481174996,43.634561368568036],[-116.06194841650033,43.63942074601928],[-116.06189901724454,43.64345402667413],[-116.05888285450783,43.646273082153456],[-116.06614544252577,43.65603515973827],[-116.07964689307403,43.659519045753015],[-116.08614781213898,43.66540477177],[-116.0924941455166,43.66554145558744],[-116.09493190190646,43.66930599414201],[-116.0936530063691,43.68601330464124],[-116.1000733205019,43.69341908893022],[-116.09967358277692,43.6969096076923],[-116.08965968770735,43.70219070422285],[-116.08853093119666,43.70889393776666],[-116.09325906637092,43.724011800251446],[-116.09199319999838,43.72766843946249],[-116.08354061641853,43.73348364250177],[-116.08649644470749,43.743387382070225],[-116.09908684186087,43.753454139837444],[-116.1126423691926,43.74149369711808],[-116.12342760088423,43.736666020380795],[-116.1292321270763,43.73979355236899],[-116.13691897413159,43.73882540086323],[-116.14443501462043,43.74378062315265],[-116.1620044679665,43.74293466654658],[-116.16543602247039,43.74855578879027],[-116.16380500710456,43.75139397239769],[-116.16585102796193,43.77462906968217],[-116.16213726771159,43.77778542446599],[-116.16326504236368,43.78312724783085],[-116.17766981271046,43.785478554868],[-116.18426329957221,43.79487129484171],[-116.19078073596027,43.796958411070115],[-116.20369089472726,43.79429729817301],[-116.2099181644988,43.80411311835513],[-116.20998750904884,43.80696092083947],[-116.20360847968985,43.81066602690758],[-116.20242983344322,43.81527759613932],[-116.20582396413235,43.81803828676183],[-116.20461217184835,43.82203762581808],[-116.20702348363291,43.824368000270226],[-116.21799105356428,43.82267910031984],[-116.22550672035396,43.83488047480849],[-116.25389398279546,43.83836330953425],[-116.25683775299834,43.84163677259964],[-116.25273040578772,43.844923725051615],[-116.25626808546262,43.84802671743598],[-116.26974195862995,43.849754535563875],[-116.27471197866919,43.84814137455522],[-116.28929590542297,43.85347536320505],[-116.29891606261528,43.86639445567372],[-116.30942257941362,43.86771823531284],[-116.31294939755841,43.86560244122227],[-116.32450936509717,43.87011847781284],[-116.33723252426638,43.86657447220978],[-116.35648664126538,43.868547597982975],[-116.35923943502877,43.865563712681315],[-116.37122075465658,43.873792979040694],[-116.37157381412281,43.868923357908464],[-116.37865897409237,43.865894931630486],[-116.3815671638235,43.861737795859256],[-116.38910807776425,43.86392119213673],[-116.39157548484671,43.86151967023797],[-116.39401251988942,43.86302619296606],[-116.40007428045978,43.86120634829473],[-116.40239829127006,43.854629997250925],[-116.40949998832568,43.85548879188189],[-116.40932402093793,43.85266540223706],[-116.41225487875694,43.852527109193794],[-116.41561937312653,43.84646987775708],[-116.41930902169639,43.844654802190284],[-116.43270785589307,43.84394063208774],[-116.43577029983322,43.84092007769097],[-116.45021774464759,43.84103419514398],[-116.4588169135189,43.836743328375924],[-116.47286166245603,43.83749951227394],[-116.47814286250296,43.83294305098137],[-116.49234403058891,43.82725040126747],[-116.4995661953174,43.83131675668258],[-116.51189002998665,43.82313689311768],[-116.51942259229017,43.82345223949983],[-116.5237626381937,43.81739709232053],[-116.5275418496957,43.81639386418845],[-116.53129576463927,43.81811922400256],[-116.53353130756375,43.82302144714505],[-116.54034723705274,43.82594210621556],[-116.54614744863656,43.826222086124666],[-116.5492881690756,43.82278796139838],[-116.55476807915831,43.82356585307366],[-116.55889331901278,43.818867993605096],[-116.56396792990054,43.81925272469344],[-116.57477578027273,43.83203502693262],[-116.58837824727298,43.83579470273549],[-116.59467522541226,43.82707744344011],[-116.60484525127144,43.827639561027304],[-116.60703561792027,43.823438768455276],[-116.61112040933244,43.82315572480556],[-116.62326914797978,43.838901352665964],[-116.63091790287373,43.84154800995264],[-116.63081283142654,43.84589785602663],[-116.64067211565592,43.85190736155411],[-116.67376701731013,43.86175246686263],[-116.68041125718878,43.858092957525095],[-116.68188905500142,43.86394238791821],[-116.68804840854422,43.86446100021523],[-116.68725594893655,43.86886859126454],[-116.69237524831478,43.87073341490269],[-116.69765898879731,43.867016404331366],[-116.69723974685081,43.86329259188511],[-116.69983671794674,43.863459699828255],[-116.7046609270423,43.872549533324566],[-116.7187137967496,43.88525548553359],[-116.7343638279129,43.88948757260542],[-116.73741926319722,43.88275130199219],[-116.74777564725704,43.874932821259684],[-116.74881227884042,43.87011740861391],[-116.76258331111046,43.872865539433164],[-116.76934552224378,43.88618115256802],[-116.78594538527616,43.880772137237415],[-116.78571026921685,43.87702899288489],[-116.7920659145307,43.87173666215841],[-116.79323247484348,43.86355719554536],[-116.7958254610128,43.86082279702347],[-116.80113020680163,43.862183372783875],[-116.80541795548423,43.85975758467918],[-116.8098437788193,43.863178049388516],[-116.814538978162,43.86128562134248],[-116.8229048779102,43.86271254861974],[-116.82756992619868,43.861684075771116],[-116.8303890300031,43.858212551122584],[-116.83950370249008,43.86108379809954],[-116.84298618158913,43.850580334431235],[-116.83846747335198,43.845020678352206],[-116.8434293160272,43.84158401016533],[-116.84045909672737,43.83325784918665],[-116.84362936545108,43.8303519196307],[-116.84868936524074,43.83240460030664],[-116.85007169818982,43.83061446030036],[-116.85850458980038,43.830628751434986],[-116.87500660114547,43.84301715707926],[-116.88733657490137,43.838429481573876],[-116.91083029088374,43.83684264256008],[-116.92828910682107,43.82811324064183],[-116.92996306165747,43.824964165248296],[-116.94074802205792,43.824776938076816],[-116.943858364169,43.827586857503334],[-116.95982432652953,43.82075476826567],[-116.9719528144554,43.82485602558309],[-116.9767490940305,43.81652442772446],[-116.98657337630314,43.81110585358056],[-117.00822987223948,43.81667398934697],[-117.01721563917816,43.82738824287908],[-117.01754272026467,43.821727814144076],[-117.00646067083012,43.812159955995796],[-117.01360953303141,43.8128904437976],[-117.02082172825688,43.81724728231126],[-117.02239295624896,43.81288873895705]]]}}]}
